[
    {
        "Altitude(m)": 553909.5239910567,
        "Argument of Periapsis(deg)": 0.033114955553567506,
        "Eccentricity": 0.0,
        "Inclination(deg)": 53.0,
        "Latitude(deg)": 21.19616515833894,
        "Longitude(deg)": -142.09220732945394,
        "Mean Anomaly(deg)": 26.821664337887956,
        "RAAN(deg)": 304.9507168426401,
        "Satellite Name": "Starlink Shell 1 1362",
        "Satellite Number": 1362,
        "Semi-Major Axis(m)": 6931778.249405717,
        "Time(s)": 950
    },
    {
        "Altitude(m)": 553954.8449853761,
        "Argument of Periapsis(deg)": 0.03346353403307874,
        "Eccentricity": 0.0,
        "Inclination(deg)": 53.0,
        "Latitude(deg)": 21.67735151444583,
        "Longitude(deg)": -141.69901099481658,
        "Mean Anomaly(deg)": 27.4484955414446,
        "RAAN(deg)": 304.9501980725626,
        "Satellite Name": "Starlink Shell 1 1362",
        "Satellite Number": 1362,
        "Semi-Major Axis(m)": 6931778.249405717,
        "Time(s)": 960
    },
    {
        "Altitude(m)": 554002.1037943893,
        "Argument of Periapsis(deg)": 0.03381211251258998,
        "Eccentricity": 0.0,
        "Inclination(deg)": 53.0,
        "Latitude(deg)": 22.157366804068424,
        "Longitude(deg)": -141.30292572352397,
        "Mean Anomaly(deg)": 28.075326745001348,
        "RAAN(deg)": 304.94967930248515,
        "Satellite Name": "Starlink Shell 1 1362",
        "Satellite Number": 1362,
        "Semi-Major Axis(m)": 6931778.249405717,
        "Time(s)": 970
    },
    {
        "Altitude(m)": 554051.2566623543,
        "Argument of Periapsis(deg)": 0.034160690992101214,
        "Eccentricity": 0.0,
        "Inclination(deg)": 53.0,
        "Latitude(deg)": 22.63617471314135,
        "Longitude(deg)": -140.9038684432639,
        "Mean Anomaly(deg)": 28.702157948558046,
        "RAAN(deg)": 304.9491605324077,
        "Satellite Name": "Starlink Shell 1 1362",
        "Satellite Number": 1362,
        "Semi-Major Axis(m)": 6931778.249405717,
        "Time(s)": 980
    },
    {
        "Altitude(m)": 554102.2590466456,
        "Argument of Periapsis(deg)": 0.034509269471612446,
        "Eccentricity": 0.0,
        "Inclination(deg)": 53.0,
        "Latitude(deg)": 23.113738226552826,
        "Longitude(deg)": -140.50175441733856,
        "Mean Anomaly(deg)": 29.32898915211479,
        "RAAN(deg)": 304.9486417623302,
        "Satellite Name": "Starlink Shell 1 1362",
        "Satellite Number": 1362,
        "Semi-Major Axis(m)": 6931778.249405717,
        "Time(s)": 990
    }
]